NORAD_CAT_ID,OBJECT_NAME,OBJECT_TYPE,EPOCH,MEAN_MOTION,ECCENTRICITY,INCLINATION,RA_OF_ASC_NODE,ARG_OF_PERICENTER,MEAN_ANOMALY,BSTAR,MEAN_MOTION_DOT,MEAN_MOTION_DDOT,TLE_LINE0,TLE_LINE1,TLE_LINE2,SEMIMAJOR_AXIS,PERIOD,APOGEE,PERIGEE,DECAYED
49420.0,STARLINK-3110,PAYLOAD,2023-05-01 16:25:59,15.08839856,0.0001159,53.2163,231.3499,66.2281,293.8832,8.488e-07,-2.74e-06,0.0,0 STARLINK-3110,1 49420U 21104N   23121.68471963 -.00000274  00000-0  84880-6 0  9998,2 49420  53.2163 231.3499 0001159  66.2281 293.8832 15.08839856 81167,6917.881,95.438,540.548,538.944,0.0
49420.0,STARLINK-3110,PAYLOAD,2023-05-02 13:06:00,15.08843912,0.0001303,53.2167,227.4858,59.8472,300.2649,0.00011257,1.504e-05,0.0,0 STARLINK-3110,1 49420U 21104N   23122.54583449  .00001504  00000-0  11257-3 0  9998,2 49420  53.2167 227.4858 0001303  59.8472 300.2649 15.08843912 82390,6917.868,95.437,540.635,538.832,0.0
49420.0,STARLINK-3110,PAYLOAD,2023-05-02 16:16:45,15.08850299,0.0001283,53.2166,226.8904,63.1434,296.9689,0.00016297,2.307e-05,0.0,0 STARLINK-3110,1 49420U 21104N   23122.67830833  .00002307  00000-0  16297-3 0  9995,2 49420  53.2166 226.8904 0001283  63.1434 296.9689 15.08850299 82411,6917.849,95.437,540.601,538.826,0.0
49420.0,STARLINK-3110,PAYLOAD,2023-05-03 01:49:05,15.08837624,0.0001239,53.2161,225.1071,69.7366,290.3759,3.6816e-05,2.98e-06,0.0,0 STARLINK-3110,1 49420U 21104N   23123.07576027  .00000298  00000-0  36816-4 0  9999,2 49420  53.2161 225.1071 0001239  69.7366 290.3759 15.08837624 82479,6917.888,95.438,540.61,538.896,0.0
49420.0,STARLINK-3110,PAYLOAD,2023-05-03 12:56:47,15.08836412,9.28e-05,53.2166,223.024,84.038,276.0718,1.6962e-05,-1.8e-07,0.0,0 STARLINK-3110,1 49420U 21104N   23123.53944202 -.00000018  00000-0  16962-4 0  9995,2 49420  53.2166 223.0240 0000928  84.0380 276.0718 15.08836412 81445,6917.891,95.438,540.398,539.114,0.0
49420.0,STARLINK-3110,PAYLOAD,2023-05-04 03:15:15,15.08840042,0.0001148,53.2165,220.3491,73.3983,286.7135,1.6003e-05,-3.3e-07,0.0,0 STARLINK-3110,1 49420U 21104N   23124.13560079 -.00000033  00000-0  16003-4 0  9991,2 49420  53.2165 220.3491 0001148  73.3983 286.7135 15.08840042 82634,6917.88,95.438,540.539,538.951,0.0
49420.0,STARLINK-3110,PAYLOAD,2023-05-04 12:47:34,15.08850581,0.0001039,53.2168,218.5642,75.7881,284.3227,-3.7191e-06,-3.47e-06,0.0,0 STARLINK-3110,1 49420U 21104N   23124.53303453 -.00000347  00000-0 -37191-5 0  9997,2 49420  53.2168 218.5642 0001039  75.7881 284.3227 15.08850581 82697,6917.848,95.437,540.432,538.994,0.0
49420.0,STARLINK-3110,PAYLOAD,2023-05-05 12:38:21,15.08835261,0.0001074,53.2167,214.1046,69.6597,290.451,9.1256e-05,1.165e-05,0.0,0 STARLINK-3110,1 49420U 21104N   23125.52664218  .00001165  00000-0  91256-4 0  9994,2 49420  53.2167 214.1046 0001074  69.6597 290.4510 15.08835261 82849,6917.895,95.438,540.503,539.017,0.0
49420.0,STARLINK-3110,PAYLOAD,2023-05-05 14:13:44,15.08840051,0.0001037,53.2165,213.8056,88.0145,272.0966,6.488e-05,7.45e-06,0.0,0 STARLINK-3110,1 49420U 21104N   23125.59287922  .00000745  00000-0  64880-4 0  9990,2 49420  53.2165 213.8056 0001037  88.0145 272.0966 15.08840051 81750,6917.88,95.438,540.463,539.028,0.0
49420.0,STARLINK-3110,PAYLOAD,2023-05-06 10:53:45,15.08841671,0.0001263,53.2164,209.9406,100.8409,259.2726,7.3944e-05,8.89e-06,0.0,0 STARLINK-3110,1 49420U 21104N   23126.45400059  .00000889  00000-0  73944-4 0  9994,2 49420  53.2164 209.9406 0001263 100.8409 259.2726 15.08841671 81885,6917.875,95.437,540.614,538.867,0.0
49420.0,STARLINK-3110,PAYLOAD,2023-05-06 22:01:27,15.08850219,0.000128,53.2173,207.8601,85.5512,274.5626,5.9477e-05,6.59e-06,0.0,0 STARLINK-3110,1 49420U 21104N   23126.91767409  .00000659  00000-0  59477-4 0  9990,2 49420  53.2173 207.8601 0001280  85.5512 274.5626 15.08850219 83050,6917.849,95.437,540.6,538.829,0.0
49420.0,STARLINK-3110,PAYLOAD,2023-05-07 10:44:32,15.0884709,0.0001266,53.217,205.4841,99.6659,260.4476,4.232e-05,3.86e-06,0.0,0 STARLINK-3110,1 49420U 21104N   23127.44759738  .00000386  00000-0  42320-4 0  9991,2 49420  53.2170 205.4841 0001266  99.6659 260.4476 15.08847090 83138,6917.859,95.437,540.6,538.848,0.0
49420.0,STARLINK-3110,PAYLOAD,2023-05-07 21:52:14,15.08837858,0.0001185,53.2161,203.3968,88.4511,271.6617,1.5748e-05,-3.7e-07,0.0,0 STARLINK-3110,1 49420U 21104N   23127.91128283 -.00000037  00000-0  15748-4 0  9996,2 49420  53.2161 203.3968 0001185  88.4511 271.6617 15.08837858 82106,6917.887,95.438,540.572,538.932,0.0
49420.0,STARLINK-3110,PAYLOAD,2023-05-08 12:10:44,15.08830544,0.0001471,53.2176,200.7284,106.9728,253.1425,-6.7849e-05,-1.367e-05,0.0,0 STARLINK-3110,1 49420U 21104N   23128.50745486 -.00001367  00000-0 -67849-4 0  9999,2 49420  53.2176 200.7284 0001471 106.9728 253.1425 15.08830544 83296,6917.909,95.438,540.792,538.757,0.0
49420.0,STARLINK-3110,PAYLOAD,2023-05-09 12:01:29,15.08847623,0.0001385,53.2165,196.2675,112.2442,247.8697,6.4077e-05,7.32e-06,0.0,0 STARLINK-3110,1 49420U 21104N   23129.50104052  .00000732  00000-0  64077-4 0  9991,2 49420  53.2165 196.2675 0001385 112.2442 247.8697 15.08847623 82346,6917.857,95.437,540.68,538.764,0.0
49420.0,STARLINK-3110,PAYLOAD,2023-05-10 11:52:17,15.08837703,0.000127,53.2169,191.7983,92.4274,267.6864,7.6752e-05,9.34e-06,0.0,0 STARLINK-3110,1 49420U 21104N   23130.49465032  .00000934  00000-0  76752-4 0  9996,2 49420  53.2169 191.7983 0001270  92.4274 267.6864 15.08837703 82497,6917.887,95.438,540.631,538.874,0.0
49420.0,STARLINK-3110,PAYLOAD,2023-05-10 21:24:37,15.088323,0.0001558,53.2168,190.0129,101.0121,259.1047,-1.2934e-05,-4.94e-06,0.0,0 STARLINK-3110,1 49420U 21104N   23130.89209653 -.00000494  00000-0 -12934-4 0  9990,2 49420  53.2168 190.0129 0001558 101.0121 259.1047 15.08832300 82551,6917.904,95.438,540.847,538.691,0.0
49420.0,STARLINK-3110,PAYLOAD,2023-05-11 10:07:41,15.08842872,0.0001392,53.2161,187.6389,82.9188,277.1963,4.6009e-05,4.44e-06,0.0,0 STARLINK-3110,1 49420U 21104N   23131.42200851  .00000444  00000-0  46009-4 0  9994,2 49420  53.2161 187.6389 0001392  82.9188 277.1963 15.08842872 82631,6917.872,95.437,540.7,538.774,0.0
49420.0,STARLINK-3110,PAYLOAD,2023-05-11 21:15:23,15.08843493,0.000141,53.2162,185.5581,79.9103,280.2048,4.4987e-05,4.28e-06,0.0,0 STARLINK-3110,1 49420U 21104N   23131.88568749  .00000428  00000-0  44987-4 0  9992,2 49420  53.2162 185.5581 0001410  79.9103 280.2048 15.08843493 83806,6917.87,95.437,540.71,538.759,0.0
49420.0,STARLINK-3110,PAYLOAD,2023-05-11 22:50:46,15.08841903,0.0001527,53.2158,185.2618,77.529,282.5873,4.807e-05,4.77e-06,0.0,0 STARLINK-3110,1 49420U 21104N   23131.95192879  .00000477  00000-0  48070-4 0  9998,2 49420  53.2158 185.2618 0001527  77.5290 282.5873 15.08841903 82713,6917.875,95.437,540.796,538.683,0.0
49420.0,STARLINK-3110,PAYLOAD,2023-05-12 08:23:06,15.08833493,0.0001407,53.2159,183.4762,83.5159,276.5993,3.4821e-05,2.66e-06,0.0,0 STARLINK-3110,1 49420U 21104N   23132.34937506  .00000266  00000-0  34821-4 0  9991,2 49420  53.2159 183.4762 0001407  83.5159 276.5993 15.08833493 83871,6917.9,95.438,540.739,538.792,0.0
49420.0,STARLINK-3110,PAYLOAD,2023-05-13 08:13:52,15.08842923,0.0001278,53.2158,179.0153,84.8117,275.3021,6.9965e-05,8.26e-06,0.0,0 STARLINK-3110,1 49420U 21104N   23133.34296745  .00000826  00000-0  69965-4 0  9994,2 49420  53.2158 179.0153 0001278  84.8117 275.3021 15.08842923 84024,6917.871,95.437,540.621,538.852,0.0
49420.0,STARLINK-3110,PAYLOAD,2023-05-13 13:00:01,15.08847022,0.0001273,53.2159,178.1235,87.4873,272.6265,9.4522e-05,1.217e-05,0.0,0 STARLINK-3110,1 49420U 21104N   23133.54168307  .00001217  00000-0  94522-4 0  9990,2 49420  53.2159 178.1235 0001273  87.4873 272.6265 15.08847022 82954,6917.859,95.437,540.605,538.843,0.0
49420.0,STARLINK-3110,PAYLOAD,2023-05-14 06:29:17,15.08828803,0.0001104,53.2157,174.8519,99.5608,260.5509,1.1987e-05,-9.7e-07,0.0,0 STARLINK-3110,1 49420U 21104N   23134.27033863 -.00000097  00000-0  11987-4 0  9999,2 49420  53.2157 174.8519 0001104  99.5608 260.5509 15.08828803 84161,6917.915,95.438,540.543,539.016,0.0
49420.0,STARLINK-3110,PAYLOAD,2023-05-14 12:50:49,15.0883414,0.0001147,53.2164,173.6632,99.9571,260.155,4.5942e-06,-2.15e-06,0.0,0 STARLINK-3110,1 49420U 21104N   23134.53529673 -.00000215  00000-0  45942-5 0  9998,2 49420  53.2164 173.6632 0001147  99.9571 260.1550 15.08834140 83108,6917.898,95.438,540.557,538.97,0.0
49420.0,STARLINK-3110,PAYLOAD,2023-05-15 06:20:03,15.08839412,0.0001075,53.2157,170.3911,92.7402,267.3713,4.0258e-05,3.53e-06,0.0,0 STARLINK-3110,1 49420U 21104N   23135.26393410  .00000353  00000-0  40258-4 0  9993,2 49420  53.2157 170.3911 0001075  92.7402 267.3713 15.08839412 84319,6917.882,95.438,540.491,539.004,0.0
49420.0,STARLINK-3110,PAYLOAD,2023-05-15 09:30:50,15.08841072,0.000109,53.2159,169.7968,95.883,264.2287,5.9909e-05,6.66e-06,0.0,0 STARLINK-3110,1 49420U 21104N   23135.39641279  .00000666  00000-0  59909-4 0  9996,2 49420  53.2159 169.7968 0001090  95.8830 264.2287 15.08841072 83238,6917.877,95.437,540.496,538.988,0.0
49420.0,STARLINK-3110,PAYLOAD,2023-05-15 19:03:08,15.08858365,9.47e-05,53.2159,168.0128,104.9027,255.207,-0.00026098,-4.441e-05,0.0,0 STARLINK-3110,1 49420U 21104N   23135.79384732 -.00004441  00000-0 -26098-3 0  9997,2 49420  53.2159 168.0128 0000947 104.9027 255.2070 15.08858365 84399,6917.824,95.436,540.344,539.034,0.0
49420.0,STARLINK-3110,PAYLOAD,2023-05-16 06:10:51,15.08833859,9.61e-05,53.216,165.9311,91.106,269.0042,0.00010052,1.312e-05,0.0,0 STARLINK-3110,1 49420U 21104N   23136.25753931  .00001312  00000-0  10052-3 0  9995,2 49420  53.2160 165.9311 0000961  91.1060 269.0042 15.08833859 84462,6917.899,95.438,540.429,539.099,0.0
49420.0,STARLINK-3110,PAYLOAD,2023-05-16 10:57:00,15.08835275,9.65e-05,53.2159,165.0389,88.9249,271.1854,0.00010797,1.431e-05,0.0,0 STARLINK-3110,1 49420U 21104N   23136.45625896  .00001431  00000-0  10797-3 0  9993,2 49420  53.2159 165.0389 0000965  88.9249 271.1854 15.08835275 83393,6917.895,95.438,540.427,539.092,0.0
